354P/LINEAR,e,5.2556,320.1293,132.9161,2.289397,0.2845263,0.12569203,144.7927,09/18.0/2021,2000,g 15.5,4.0
# From MPEC 2020-AA5
355P/LINEAR-NEAT,e,11.0414,51.4304,336.2589,3.471381,0.1523880,0.50737175,218.7769,09/18.0/2021,2000,g 15.5,2.0
# From MPEC 2021-F20
356P/WISE,e,9.6378,160.7968,225.9870,4.159055,0.1162016,0.35523170,159.2244,09/18.0/2021,2000,g 14.0,4.0
# From MPC114609
357P/Hill,e,6.3126,44.5652,1.3880,4.459924,0.1046437,0.43500528,126.3866,09/18.0/2021,2000,g 15.5,4.0
# From MPEC 2020-HN5
358P/PANSTARRS,e,11.0585,85.7051,299.7368,3.147295,0.1765216,0.23858875,221.5495,09/18.0/2021,2000,g 18.0,4.0
# From MPC110086
359P/LONEOS,e,10.2676,149.7558,200.1750,4.639600,0.0986242,0.32419137,146.7512,09/18.0/2021,2000,g 13.5,4.0
# From MPC108599
360P/WISE,e,24.1083,2.1904,354.1376,3.701816,0.1383827,0.49904963,206.1971,09/18.0/2021,2000,g 19.5,6.0
# From MPC114609
361P/Spacewatch,e,13.8951,203.2506,219.0342,4.937867,0.0898245,0.43822675,105.4240,09/18.0/2021,2000,g 12.0,4.0
# From MPEC 2017-V13
362P/,e,15.5562,192.5606,53.7003,3.969395,0.1246286,0.27928232,230.8191,09/18.0/2021,2000,g 12.9,2.0
# From MPC114609
363P/Lemmon,e,5.4091,146.8893,341.2461,3.554767,0.1470576,0.52387654,190.8174,09/18.0/2021,2000,g 17.5,4.0
# From MPEC 2021-F20
364P/PANSTARRS,e,12.1381,46.1815,212.0141,2.879399,0.2017211,0.72210213,238.3821,09/18.0/2021,2000,g 17.0,2.0
# From MPC111775
365P/PANSTARRS,e,9.8219,87.1010,66.5130,3.173315,0.1743549,0.57831279,228.7997,09/18.0/2021,2000,g 17.0,4.0
# From MPC114610
366P/Spacewatch,e,8.8585,70.7604,153.1275,3.495953,0.1507841,0.34816825,174.2477,09/18.0/2021,2000,g 15.0,4.0
# From MPC112395
367P/Catalina,e,8.4618,58.7217,172.8973,3.506054,0.1501330,0.28010840,177.9737,09/18.0/2021,2000,g 17.5,2.0
# From MPC114610
368P/NEAT,e,15.4811,257.9286,118.8050,5.527267,0.0758470,0.62653114,83.3697,09/18.0/2021,2000,g 14.0,4.0
# From MPC114610
369P/Hill,e,10.3161,47.2928,13.1686,4.383689,0.1073852,0.55460141,114.7650,09/18.0/2021,2000,g 15.0,4.0
# From MPEC 2021-F20
370P/NEAT,e,19.4084,55.1067,356.6788,6.434357,0.0603874,0.61474819,72.2398,09/18.0/2021,2000,g 13.0,4.0
# From MPC114610
371P/LINEAR-Skiff,e,17.3783,67.2896,308.4733,4.180889,0.1152925,0.47679247,124.3818,09/18.0/2021,2000,g 16.0,4.0
# From MPEC 2020-K19
372P/McNaught,e,9.5102,325.8156,27.3622,4.505091,0.1030739,0.15275242,109.4152,09/18.0/2021,2000,g 13.5,4.0
# From MPEC 2021-F20
373P/Rinner,e,13.7630,231.9488,221.0764,3.803067,0.1328933,0.39226154,118.7117,09/18.0/2021,2000,g 14.5,4.0
# From MPC114610
374P/Larson,e,10.7650,7.9125,51.4723,4.973035,0.0888734,0.46267081,87.2009,09/18.0/2021,2000,g 14.0,4.0
# From MPEC 2021-F20
375P/Hill,e,17.3614,359.9487,119.4391,5.555028,0.0752791,0.65854143,75.4390,09/18.0/2021,2000,g 16.0,4.0
# From MPEC 2020-W26
376P/LONEOS,e,1.1886,314.7099,284.6550,5.821799,0.0701646,0.51716524,50.7087,09/18.0/2021,2000,g 12.5,4.0
# From MPEC 2021-N06
377P/Scotti,e,9.0235,226.0614,355.0514,6.709614,0.0567098,0.25218590,24.5515,09/18.0/2021,2000,g  9.5,4.0
# From MPEC 2021-R75
378P/McNaught,e,19.0500,94.3565,193.8567,6.372118,0.0612743,0.46994380,20.4574,09/18.0/2021,2000,g 12.0,4.0
# From MPC115889
379P/Spacewatch,e,12.4294,183.8222,30.8957,3.519149,0.1492958,0.34047728,116.2779,09/18.0/2021,2000,g 15.0,4.0
# From MPEC 2020-KB7
380P/PANSTARRS,e,8.2782,132.9615,87.9297,4.496579,0.1033667,0.33402090,86.8149,09/18.0/2021,2000,g 12.5,4.0
# From MPEC 2021-J28
381P/LINEAR-Spacewatch,e,28.3769,173.7651,173.1897,7.126207,0.0518103,0.68190531,37.4016,09/18.0/2021,2000,g 17.5,2.0
# From MPEC 2021-R75
382P/Larson,e,8.0087,174.4322,172.8511,6.449773,0.0601710,0.31589043,349.5684,09/18.0/2021,2000,g  8.0,4.0
# From MPC118844
383P/Christensen,e,12.3218,207.8582,133.6999,3.545587,0.1476290,0.59962920,102.2519,09/18.0/2021,2000,g 18.0,4.0
# From MPEC 2020-W26
384P/Kowalski,e,7.2844,354.2300,37.6161,2.900871,0.1994856,0.61570861,141.1140,09/18.0/2021,2000,g 19.5,4.0
# From MPEC 2021-F20
385P/Hill,e,16.8310,357.0608,44.3205,4.288318,0.1109874,0.40159054,81.4725,09/18.0/2021,2000,g 13.0,4.0
# From MPEC 2021-L04
386P/PANSTARRS,e,15.2296,134.9480,353.2038,4.055983,0.1206590,0.41624104,47.6351,09/18.0/2021,2000,g 14.5,4.0
# From MPEC 2021-J28
387P/Boattini,e,8.9200,259.3080,162.7694,4.798001,0.0937807,0.73620255,69.6525,09/18.0/2021,2000,g 15.0,4.0
# From MPEC 2021-F20
388P/Gibbs,e,23.8721,37.0419,42.3462,5.243303,0.0820912,0.61808293,64.6400,09/18.0/2021,2000,g 13.0,4.0
# From MPEC 2021-J28
389P/Siding Spring,e,160.0718,218.8551,249.3260,5.628311,0.0738137,0.70429907,46.4132,09/18.0/2021,2000,g 16.0,4.0
# From MPEC 2021-O56
390P/Gibbs,e,18.5623,152.2748,232.3531,5.804513,0.0704783,0.70720455,38.3869,09/18.0/2021,2000,g 12.0,4.0
# From MPEC 2021-F20
391P/Kowalski,e,21.2755,124.7318,187.0667,4.679837,0.0973549,0.12058294,124.2595,09/18.0/2021,2000,g  8.0,4.0
# From MPEC 2021-J28
392P/LINEAR,e,4.9308,24.8816,71.9453,6.144325,0.0647132,0.68279386,34.6361,09/18.0/2021,2000,g 14.5,4.0
# From MPEC 2021-BE3
393P/Spacewatch-Hill,e,16.7899,36.4123,328.3277,4.787613,0.0940861,0.12063605,65.1648,09/18.0/2021,2000,g 11.0,4.0
# From MPEC 2020-KB7
394P/PANSTARRS,e,8.5294,98.1252,54.5195,4.331840,0.1093190,0.36773937,71.9073,09/18.0/2021,2000,g 16.0,2.4
# From MPEC 2021-R75
395P/Catalina-NEAT,e,3.2767,223.7183,89.8078,6.550108,0.0587938,0.37941977,353.9110,09/18.0/2021,2000,g 10.0,4.0
# From MPEC 2020-KB7
396P/,e,5.4363,136.6644,8.5654,6.815623,0.0553918,0.41581677,41.6363,09/18.0/2021,2000,g 12.0,4.0
# From MPEC 2021-O56
397P/Lemmon,e,10.9287,8.1997,14.4478,3.827949,0.1315997,0.40513898,59.9526,09/18.0/2021,2000,g 12.0,4.0
# From MPEC 2021-L04
398P/Boattini,e,11.0154,127.4616,320.2241,3.127935,0.1781630,0.58264646,47.2594,09/18.0/2021,2000,g 15.5,4.0
# From MPEC 2021-F20
399P/PANSTARRS,e,13.3187,207.1439,214.2960,3.789900,0.1335864,0.44694493,15.8199,09/18.0/2021,2000,g 15.6,4.0
# From MPEC 2020-FB5
400P/PANSTARRS,e,10.9293,176.3935,238.7966,3.560194,0.1467214,0.40920791,32.2609,09/18.0/2021,2000,g 15.5,2.8
# From MPEC 2021-R75
401P/McNaught,e,12.8028,359.8822,309.3490,5.773295,0.0710507,0.58005711,46.2455,09/18.0/2021,2000,g 12.5,4.0
# From MPEC 2021-R75
402P/LINEAR,e,30.8525,123.0898,326.7356,7.012699,0.0530733,0.43846571,355.3525,09/18.0/2021,2000,g  8.0,4.0
# From MPEC 2021-J28
403P/Catalina,e,12.3214,163.8124,277.6583,5.427336,0.0779514,0.50346006,28.5816,09/18.0/2021,2000,g 12.0,4.0
# From MPEC 2021-R75
404P/Bressi,e,9.7214,261.4524,163.6383,4.813140,0.0933386,0.13672617,290.8014,09/18.0/2021,2000,g 10.0,4.0
# From MPEC 2021-L04
405P/Lemmon,e,9.3655,3.3144,112.2328,3.608418,0.1437900,0.68912559,38.4923,09/18.0/2021,2000,g 17.5,4.0
# From MPEC 2021-F20
406P/Gibbs,e,1.2135,11.4705,352.3873,3.574666,0.1458313,0.54203664,53.5557,09/18.0/2021,2000,g 17.0,4.0
# From MPEC 2021-F20
407P/PANSTARRS-Fuls,e,4.8890,80.7872,92.7260,3.461827,0.1530192,0.38446022,90.9891,09/18.0/2021,2000,g 14.0,4.0
# From MPEC 2021-R75
408P/Novichonok-Gerke,e,19.3392,189.4404,226.1533,4.757746,0.0949734,0.27081542,323.8943,09/18.0/2021,2000,g 11.0,4.0
# From MPEC 2021-O56
409P/LONEOS-Hill,e,17.1188,143.6716,15.1285,6.046459,0.0662907,0.70990854,15.4359,09/18.0/2021,2000,g 14.0,4.0
# From MPEC 2021-F20
410P/NEAT-LINEAR,e,9.3938,139.9803,313.0910,6.633167,0.0576929,0.51048784,4.9878,09/18.0/2021,2000,g 12.5,4.0
# From MPEC 2021-J28
411P/Christensen,e,12.3777,77.6688,46.6638,5.817420,0.0702439,0.58081185,16.6203,09/18.0/2021,2000,g 13.5,4.0
# From MPEC 2021-F20
412P/WISE,e,8.9312,0.8492,155.9178,3.109490,0.1797506,0.47976220,51.5248,09/18.0/2021,2000,g 17.0,4.0
# From MPEC 2021-O56
413P/Larson,e,15.9784,39.0256,186.0436,3.710126,0.1379180,0.42323080,8.2452,09/18.0/2021,2000,g 14.0,4.0
# From MPEC 2021-BE3
414P/STEREO,e,23.3838,257.7893,210.7295,2.794455,0.2109883,0.81163079,49.7144,09/18.0/2021,2000,g 19.0,4.0
# From MPEC 2021-N06
415P/Tenagra,e,31.7920,160.2947,346.2435,4.115373,0.1180566,0.19474809,25.3735,09/18.0/2021,2000,g 12.0,4.0
# From MPEC 2021-L04
416P/Scotti,e,3.3614,355.8124,134.5051,4.012970,0.1226041,0.45432249,26.3061,09/18.0/2021,2000,g 15.5,4.0
# From MPEC 2021-R75
417P/NEOWISE,e,8.1304,111.3498,129.4723,3.349325,0.1607934,0.55451981,23.9261,09/18.0/2021,2000,g 16.5,4.0
# From MPEC 2021-L04
418P/LINEAR,e,5.7974,277.6581,307.0993,5.080285,0.0860740,0.66480356,357.4552,09/18.0/2021,2000,g 13.0,4.0
# From MPEC 2021-R75
419P/PANSTARRS,e,2.8029,40.3898,187.5003,3.521259,0.1491616,0.27774097,354.1146,09/18.0/2021,2000,g 12.5,4.0
# From MPEC 2021-R75
420P/Hill,e,14.5030,173.9588,157.1256,5.522202,0.0759514,0.49507224,341.2634,09/18.0/2021,2000,g 11.5,4.0
# From MPEC 2021-L04
421P/McNaught,e,10.0804,55.3487,259.8217,5.075653,0.0861918,0.67559114,20.2703,09/18.0/2021,2000,g 14.0,4.0
# From MPEC 2021-R75
422P/Christensen,e,39.5319,36.0674,305.1449,6.318979,0.0620488,0.50859041,352.6870,09/18.0/2021,2000,g 11.0,4.0
# From MPEC 2021-N06
423P/Lemmon,e,8.3462,33.3142,80.4104,6.163739,0.0644077,0.12050059,359.8681,09/18.0/2021,2000,g 10.0,4.0
# From MPEC 2021-R75
424P/LaSagra,e,8.6853,51.1803,312.4727,4.415556,0.1062248,0.69138761,355.3649,09/18.0/2021,2000,g 17.0,4.0
# From MPEC 2021-R75
425P/Kowalski,e,16.4213,210.0883,200.7298,6.328719,0.0619057,0.54334107,359.8513,09/18.0/2021,2000,g 12.0,4.0
# From MPC107687
1I/`Oumuamua,h,09/09.4886/2017,122.6778,24.5997,241.6845,1.199252,0.255240,2000,23.0,2.0
# From MPEC 2020-K19
2I/Borisov,h,12/08.5549/2019,44.0527,308.1480,209.1251,3.356636,2.006548,2000,11.0,4.0
